FENGYUN 3D              
1 43010U 17072A   26179.63474199  .00000003  00000+0  23486-4 0  9992
2 43010  99.0124 154.2639 0002232  44.4310 315.7044 14.19741079446618
NOAA 20 (JPSS-1)        
1 43013U 17073A   26179.56109272  .00000040  00000+0  39977-4 0  9998
2 43013  98.7773 118.9226 0000698 134.7604 225.3629 14.19513674446083
GOES 17                 
1 43226U 18022A   26179.57267439 -.00000172  00000+0  00000+0 0  9997
2 43226   0.9650  85.5284 0000727  27.3172 280.4799  1.00272465 30536
SENTINEL-3B             
1 43437U 18039A   26179.62088260  .00000103  00000+0  60673-4 0  9998
2 43437  98.6246 246.9890 0000786 110.5221 249.6044 14.26737799425756
FENGYUN 2H              
1 43491U 18050A   26179.60613073 -.00000120  00000+0  00000+0 0  9998
2 43491   3.0604  78.9469 0001715 121.6627  13.6236  1.00269777 29559
METOP-C                 
1 43689U 18087A   26179.61156967  .00000100  00000+0  65390-4 0  9997
2 43689  98.6640 239.0062 0002075 115.2193 244.9200 14.21515006396456
GEO-KOMPSAT-2A          
1 43823U 18100A   26179.54456344 -.00000332  00000+0  00000+0 0  9997
2 43823   0.0431 132.2253 0002395 317.9795 150.7449  1.00271982 27748
METEOR-M2 2             
1 44387U 19038A   26179.62453873 -.00000143  00000+0 -42154-4 0  9999
2 44387  98.9143 167.0786 0001615  31.2983 328.8291 14.24368268362925
ARKTIKA-M 1             
1 47719U 21016A   26177.96120627 -.00000323  00000+0  00000+0 0  9991
2 47719  63.2527  56.2167 7291839 269.9811  14.5584  2.00619221 38985
FENGYUN 3E              
1 49008U 21062A   26179.61733611 -.00000009  00000+0  16531-4 0  9994
2 49008  98.7490 182.8976 0002753  66.9083 293.2384 14.19905299258207
GOES 18                 
1 51850U 22021A   26179.56331434  .00000108  00000+0  00000+0 0  9997
2 51850   0.0210 189.0634 0000728 300.9465 212.4475  1.00273819  6708
NOAA 21 (JPSS-2)        
1 54234U 22150A   26179.59365899  .00000042  00000+0  40615-4 0  9992
2 54234  98.7061 118.1913 0002294 134.4505 225.6859 14.19538440188164
METEOSAT-12 (MTG-I1)    
1 54743U 22170C   26179.30521948  .00000004  00000+0  00000+0 0  9994
2 54743   0.7506  24.7217 0003677  72.3488 288.9025  1.00275707 13086
TIANMU-1 03             
1 55973U 23039A   26179.62528131  .00013597  00000+0  26549-3 0  9992
2 55973  97.5227 354.0448 0003886  71.8666 288.3006 15.47600633182609
TIANMU-1 04             
1 55974U 23039B   26179.61030696  .00014124  00000+0  26991-3 0  9994
2 55974  97.5167 353.1834 0004273  64.9025 295.2668 15.48211566182611
TIANMU-1 05             
1 55975U 23039C   26179.67126571  .00013817  00000+0  27041-3 0  9994
2 55975  97.5211 353.7030 0003855  86.9588 273.2103 15.47528006182595
TIANMU-1 06             
1 55976U 23039D   26179.61440440  .00014180  00000+0  27190-3 0  9992
2 55976  97.5219 354.2911 0004067  82.5399 277.6313 15.48112626182618
FENGYUN 3G              
1 56232U 23055A   26179.62479446  .00022026  00000+0  35065-3 0  9993
2 56232  49.9936 287.0683 0007277 344.1910  15.8829 15.53126546181785
METEOR-M2 3             
1 57166U 23091A   26179.62148499  .00000000  00000+0  18642-4 0  9992
2 57166  98.6078 234.3657 0004875 127.7726 232.3895 14.24047672156147
TIANMU-1 07             
1 57399U 23101A   26179.61185266  .00006010  00000+0  20987-3 0  9995
2 57399  97.2590 230.0180 0004332  98.3887 261.7845 15.29936386163393
TIANMU-1 08             
1 57400U 23101B   26179.64386728  .00005714  00000+0  19961-3 0  9997
2 57400  97.2579 229.8182 0005628  87.5396 272.6489 15.29941091163399
TIANMU-1 09             
1 57401U 23101C   26179.62703866  .00006155  00000+0  21459-3 0  9997
2 57401  97.2537 229.2117 0004905 101.3853 258.7939 15.29976097163395
TIANMU-1 10             
1 57402U 23101D   26179.66029653  .00005991  00000+0  20909-3 0  9993
2 57402  97.2616 230.3064 0006418  97.0436 263.1535 15.29948672163397
FENGYUN 3F              
1 57490U 23111A   26179.60098396  .00000046  00000+0  42107-4 0  9996
2 57490  98.6834 249.3969 0001529  84.9191 275.2161 14.19940899150482
ARKTIKA-M 2             
1 58584U 23198A   26177.23312466  .00000156  00000+0  00000+0 0  9993
2 58584  63.2200 153.3551 6904874 267.3978  18.7558  2.00610703 18505
TIANMU-1 11             
1 58645U 23205A   26179.58642661  .00005167  00000+0  19695-3 0  9994
2 58645  97.3440 200.9646 0007595 335.0394  25.0477 15.27108780139262
TIANMU-1 12             
1 58646U 23205B   26179.62267418  .00005140  00000+0  19661-3 0  9997
2 58646  97.3429 200.7534 0005512 314.6465  45.4324 15.27006356139255
TIANMU-1 13             
1 58647U 23205C   26179.59032600  .00005302  00000+0  20321-3 0  9992
2 58647  97.3456 200.9962 0005002 290.0148  70.0553 15.26928837139245
TIANMU-1 14             
1 58648U 23205D   26179.64072955  .00005115  00000+0  19588-3 0  9991
2 58648  97.3393 200.2186 0005855 296.1683  63.8954 15.26974200139255
TIANMU-1 19             
1 58660U 23208A   26179.58924836  .00007520  00000+0  24791-3 0  9999
2 58660  97.4515 295.9483 0003478 272.1334  87.9509 15.31740413139079
