OBJECT_NAME,OBJECT_ID,EPOCH,MEAN_MOTION,ECCENTRICITY,INCLINATION,RA_OF_ASC_NODE,ARG_OF_PERICENTER,MEAN_ANOMALY,EPHEMERIS_TYPE,CLASSIFICATION_TYPE,NORAD_CAT_ID,ELEMENT_SET_NO,REV_AT_EPOCH,BSTAR,MEAN_MOTION_DOT,MEAN_MOTION_DDOT
FENGYUN 3D,2017-072A,2026-06-28T15:14:01.707936,14.19741079,.00022324,99.0124,154.2639,44.4310,315.7044,0,U,43010,999,44661,.23485719E-4,.3E-7,0
NOAA 20 (JPSS-1),2017-073A,2026-06-28T13:27:58.411008,14.19513674,.00006988,98.7773,118.9226,134.7604,225.3629,0,U,43013,999,44608,.39976623E-4,.4E-6,0
GOES 17,2018-022A,2026-06-28T13:44:39.067296,1.00272465,.00007272,0.9650,85.5284,27.3172,280.4799,0,U,43226,999,3053,0,-.172E-5,0
SENTINEL-3B,2018-039A,2026-06-28T14:54:04.256640,14.26737799,.0000786,98.6246,246.9890,110.5221,249.6044,0,U,43437,999,42575,.60672718E-4,.103E-5,0
FENGYUN 2H,2018-050A,2026-06-28T14:32:49.695072,1.00269777,.00017151,3.0604,78.9469,121.6627,13.6236,0,U,43491,999,2955,0,-.12E-5,0
METOP-C,2018-087A,2026-06-28T14:40:39.619488,14.21515006,.00020755,98.6640,239.0062,115.2193,244.9200,0,U,43689,999,39645,.65390359E-4,.1E-5,0
GEO-KOMPSAT-2A,2018-100A,2026-06-28T13:04:10.281216,1.00271982,.00023956,0.0431,132.2253,317.9795,150.7449,0,U,43823,999,2774,0,-.332E-5,0
METEOR-M2 2,2019-038A,2026-06-28T14:59:20.146272,14.24368268,.00016156,98.9143,167.0786,31.2983,328.8291,0,U,44387,999,36292,-.42154441E-4,-.143E-5,0
ARKTIKA-M 1,2021-016A,2026-06-26T23:04:08.221728,2.00619221,.72918394,63.2527,56.2167,269.9811,14.5584,0,U,47719,999,3898,0,-.323E-5,0
FENGYUN 3E,2021-062A,2026-06-28T14:48:57.839904,14.19905299,.00027539,98.7490,182.8976,66.9083,293.2384,0,U,49008,999,25820,.16531485E-4,-.9E-7,0
GOES 18,2022-021A,2026-06-28T13:31:10.358976,1.00273819,.00007287,0.0210,189.0634,300.9465,212.4475,0,U,51850,999,670,0,.108E-5,0
NOAA 21 (JPSS-2),2022-150A,2026-06-28T14:14:52.136736,14.19538440,.0002294,98.7061,118.1913,134.4505,225.6859,0,U,54234,999,18816,.40614696E-4,.42E-6,0
METEOSAT-12 (MTG-I1),2022-170C,2026-06-28T07:19:30.963072,1.00275707,.0003677,0.7506,24.7217,72.3488,288.9025,0,U,54743,999,1308,0,.4E-7,0
TIANMU-1 03,2023-039A,2026-06-28T15:00:24.305184,15.47600633,.00038865,97.5227,354.0448,71.8666,288.3006,0,U,55973,999,18260,.26548694E-3,.13597E-3,0
TIANMU-1 04,2023-039B,2026-06-28T14:38:50.521344,15.48211566,.00042735,97.5167,353.1834,64.9025,295.2668,0,U,55974,999,18261,.26990962E-3,.14124E-3,0
TIANMU-1 05,2023-039C,2026-06-28T16:06:37.357344,15.47528006,.0003855,97.5211,353.7030,86.9588,273.2103,0,U,55975,999,18259,.27041451E-3,.13817E-3,0
TIANMU-1 06,2023-039D,2026-06-28T14:44:44.540160,15.48112626,.00040675,97.5219,354.2911,82.5399,277.6313,0,U,55976,999,18261,.27190426E-3,.1418E-3,0
FENGYUN 3G,2023-055A,2026-06-28T14:59:42.241344,15.53126546,.00072779,49.9936,287.0683,344.1910,15.8829,0,U,56232,999,18178,.35064695E-3,.22026E-3,0
METEOR-M2 3,2023-091A,2026-06-28T14:54:56.303136,14.24047672,.00048755,98.6078,234.3657,127.7726,232.3895,0,U,57166,999,15614,.18641655E-4,0,0
TIANMU-1 07,2023-101A,2026-06-28T14:41:04.069824,15.29936386,.00043323,97.2590,230.0180,98.3887,261.7845,0,U,57399,999,16339,.20987067E-3,.601E-4,0
TIANMU-1 08,2023-101B,2026-06-28T15:27:10.132992,15.29941091,.0005628,97.2579,229.8182,87.5396,272.6489,0,U,57400,999,16339,.1996054E-3,.5714E-4,0
TIANMU-1 09,2023-101C,2026-06-28T15:02:56.140224,15.29976097,.00049059,97.2537,229.2117,101.3853,258.7939,0,U,57401,999,16339,.21458725E-3,.6155E-4,0
TIANMU-1 10,2023-101D,2026-06-28T15:50:49.620192,15.29948672,.00064181,97.2616,230.3064,97.0436,263.1535,0,U,57402,999,16339,.20908784E-3,.5991E-4,0
FENGYUN 3F,2023-111A,2026-06-28T14:25:25.014144,14.19940899,.00015293,98.6834,249.3969,84.9191,275.2161,0,U,57490,999,15048,.4210735E-4,.46E-6,0
ARKTIKA-M 2,2023-198A,2026-06-26T05:35:41.970624,2.00610703,.69048743,63.2200,153.3551,267.3978,18.7558,0,U,58584,999,1850,0,.156E-5,0
TIANMU-1 11,2023-205A,2026-06-28T14:04:27.259104,15.27108780,.0007595,97.3440,200.9646,335.0394,25.0477,0,U,58645,999,13926,.19695235E-3,.5167E-4,0
TIANMU-1 12,2023-205B,2026-06-28T14:56:39.049152,15.27006356,.00055127,97.3429,200.7534,314.6465,45.4324,0,U,58646,999,13925,.19660777E-3,.514E-4,0
TIANMU-1 13,2023-205C,2026-06-28T14:10:04.166400,15.26928837,.0005002,97.3456,200.9962,290.0148,70.0553,0,U,58647,999,13924,.20320608E-3,.5302E-4,0
TIANMU-1 14,2023-205D,2026-06-28T15:22:39.033120,15.26974200,.00058558,97.3393,200.2186,296.1683,63.8954,0,U,58648,999,13925,.1958755E-3,.5115E-4,0
TIANMU-1 19,2023-208A,2026-06-28T14:08:31.058304,15.31740413,.00034784,97.4515,295.9483,272.1334,87.9509,0,U,58660,999,13907,.2479106E-3,.752E-4,0
